[{"OBJECT_NAME":"ONEWEB-0206","OBJECT_ID":"2021-031T","EPOCH":"2026-04-06T20:44:58.496352","MEAN_MOTION":13.14503596,"ECCENTRICITY":0.0001754,"INCLINATION":87.8944,"RA_OF_ASC_NODE":303.9321,"ARG_OF_PERICENTER":93.8688,"MEAN_ANOMALY":266.2642,"EPHEMERIS_TYPE":0,"CLASSIFICATION_TYPE":"U","NORAD_CAT_ID":48227,"ELEMENT_SET_NO":999,"REV_AT_EPOCH":23885,"BSTAR":0.0005683,"MEAN_MOTION_DOT":2.23e-06,"MEAN_MOTION_DDOT":0.0},{"OBJECT_NAME":"ONEWEB-0182","OBJECT_ID":"2021-031U","EPOCH":"2026-04-06T20:38:05.696160","MEAN_MOTION":13.1450313,"ECCENTRICITY":0.0001483,"INCLINATION":87.8935,"RA_OF_ASC_NODE":303.9437,"ARG_OF_PERICENTER":92.5945,"MEAN_ANOMALY":267.5354,"EPHEMERIS_TYPE":0,"CLASSIFICATION_TYPE":"U","NORAD_CAT_ID":48228,"ELEMENT_SET_NO":999,"REV_AT_EPOCH":23906,"BSTAR":9.5592e-05,"MEAN_MOTION_DOT":4.8e-07,"MEAN_MOTION_DDOT":0.0},{"OBJECT_NAME":"ONEWEB-0186","OBJECT_ID":"2021-031V","EPOCH":"2026-04-06T20:54:05.055840","MEAN_MOTION":13.14500989,"ECCENTRICITY":0.000163,"INCLINATION":87.8937,"RA_OF_ASC_NODE":303.9292,"ARG_OF_PERICENTER":83.419,"MEAN_ANOMALY":276.7126,"EPHEMERIS_TYPE":0,"CLASSIFICATION_TYPE":"U","NORAD_CAT_ID":48229,"ELEMENT_SET_NO":999,"REV_AT_EPOCH":23901,"BSTAR":0.00038624000000000004,"MEAN_MOTION_DOT":1.56e-06,"MEAN_MOTION_DDOT":0.0},{"OBJECT_NAME":"ONEWEB-0181","OBJECT_ID":"2021-031W","EPOCH":"2026-04-06T02:06:00.638496","MEAN_MOTION":13.14504616,"ECCENTRICITY":0.0001703,"INCLINATION":87.8927,"RA_OF_ASC_NODE":304.124,"ARG_OF_PERICENTER":80.6701,"MEAN_ANOMALY":279.4621,"EPHEMERIS_TYPE":0,"CLASSIFICATION_TYPE":"U","NORAD_CAT_ID":48230,"ELEMENT_SET_NO":999,"REV_AT_EPOCH":23876,"BSTAR":0.00023050000000000002,"MEAN_MOTION_DOT":9.8e-07,"MEAN_MOTION_DDOT":0.0},{"OBJECT_NAME":"ONEWEB-0188","OBJECT_ID":"2021-031X","EPOCH":"2026-04-06T19:27:17.927424","MEAN_MOTION":13.14502253,"ECCENTRICITY":0.0001618,"INCLINATION":87.8926,"RA_OF_ASC_NODE":303.978,"ARG_OF_PERICENTER":86.0868,"MEAN_ANOMALY":274.0447,"EPHEMERIS_TYPE":0,"CLASSIFICATION_TYPE":"U","NORAD_CAT_ID":48231,"ELEMENT_SET_NO":999,"REV_AT_EPOCH":23876,"BSTAR":-0.0006845,"MEAN_MOTION_DOT":-2.41e-06,"MEAN_MOTION_DDOT":0.0},{"OBJECT_NAME":"ONEWEB-0220","OBJECT_ID":"2021-031Y","EPOCH":"2026-04-06T20:24:23.561280","MEAN_MOTION":13.1450303,"ECCENTRICITY":0.0001498,"INCLINATION":87.894,"RA_OF_ASC_NODE":303.9326,"ARG_OF_PERICENTER":81.1021,"MEAN_ANOMALY":279.0278,"EPHEMERIS_TYPE":0,"CLASSIFICATION_TYPE":"U","NORAD_CAT_ID":48232,"ELEMENT_SET_NO":999,"REV_AT_EPOCH":23903,"BSTAR":-0.00059561,"MEAN_MOTION_DOT":-2.08e-06,"MEAN_MOTION_DDOT":0.0},{"OBJECT_NAME":"ONEWEB-0165","OBJECT_ID":"2021-031Z","EPOCH":"2026-04-06T19:15:53.998848","MEAN_MOTION":13.14504384,"ECCENTRICITY":0.0001853,"INCLINATION":87.8941,"RA_OF_ASC_NODE":303.9591,"ARG_OF_PERICENTER":76.8342,"MEAN_ANOMALY":283.2995,"EPHEMERIS_TYPE":0,"CLASSIFICATION_TYPE":"U","NORAD_CAT_ID":48233,"ELEMENT_SET_NO":999,"REV_AT_EPOCH":23898,"BSTAR":0.00046525,"MEAN_MOTION_DOT":1.85e-06,"MEAN_MOTION_DDOT":0.0},{"OBJECT_NAME":"ONEWEB-0199","OBJECT_ID":"2021-031AA","EPOCH":"2026-04-06T20:42:40.931136","MEAN_MOTION":13.14502322,"ECCENTRICITY":0.00017,"INCLINATION":87.8945,"RA_OF_ASC_NODE":303.9291,"ARG_OF_PERICENTER":93.2226,"MEAN_ANOMALY":266.9098,"EPHEMERIS_TYPE":0,"CLASSIFICATION_TYPE":"U","NORAD_CAT_ID":48234,"ELEMENT_SET_NO":999,"REV_AT_EPOCH":23889,"BSTAR":0.00055493,"MEAN_MOTION_DOT":2.19e-06,"MEAN_MOTION_DDOT":0.0},{"OBJECT_NAME":"ONEWEB-0203","OBJECT_ID":"2021-031AB","EPOCH":"2026-04-06T22:18:34.562880","MEAN_MOTION":13.14501386,"ECCENTRICITY":0.0001868,"INCLINATION":87.8949,"RA_OF_ASC_NODE":303.9175,"ARG_OF_PERICENTER":86.9058,"MEAN_ANOMALY":273.2285,"EPHEMERIS_TYPE":0,"CLASSIFICATION_TYPE":"U","NORAD_CAT_ID":48235,"ELEMENT_SET_NO":999,"REV_AT_EPOCH":23891,"BSTAR":0.00015301,"MEAN_MOTION_DOT":7e-07,"MEAN_MOTION_DDOT":0.0},{"OBJECT_NAME":"ONEWEB-0197","OBJECT_ID":"2021-031AC","EPOCH":"2026-04-06T19:52:12.928224","MEAN_MOTION":13.14500759,"ECCENTRICITY":0.000142,"INCLINATION":87.8933,"RA_OF_ASC_NODE":303.9326,"ARG_OF_PERICENTER":94.1017,"MEAN_ANOMALY":266.0275,"EPHEMERIS_TYPE":0,"CLASSIFICATION_TYPE":"U","NORAD_CAT_ID":48236,"ELEMENT_SET_NO":999,"REV_AT_EPOCH":23881,"BSTAR":-0.00070209,"MEAN_MOTION_DOT":-2.47e-06,"MEAN_MOTION_DDOT":0.0},{"OBJECT_NAME":"ONEWEB-0194","OBJECT_ID":"2021-031AD","EPOCH":"2026-04-06T19:22:44.128416","MEAN_MOTION":13.14502212,"ECCENTRICITY":0.0001854,"INCLINATION":87.8939,"RA_OF_ASC_NODE":303.9557,"ARG_OF_PERICENTER":91.9512,"MEAN_ANOMALY":268.183,"EPHEMERIS_TYPE":0,"CLASSIFICATION_TYPE":"U","NORAD_CAT_ID":48237,"ELEMENT_SET_NO":999,"REV_AT_EPOCH":23898,"BSTAR":-0.00039775,"MEAN_MOTION_DOT":-1.35e-06,"MEAN_MOTION_DDOT":0.0},{"OBJECT_NAME":"ONEWEB-0193","OBJECT_ID":"2021-031AE","EPOCH":"2026-04-06T03:19:04.589184","MEAN_MOTION":13.1450113,"ECCENTRICITY":0.000203,"INCLINATION":87.8937,"RA_OF_ASC_NODE":304.0805,"ARG_OF_PERICENTER":96.8682,"MEAN_ANOMALY":263.2679,"EPHEMERIS_TYPE":0,"CLASSIFICATION_TYPE":"U","NORAD_CAT_ID":48238,"ELEMENT_SET_NO":999,"REV_AT_EPOCH":23884,"BSTAR":-0.00062153,"MEAN_MOTION_DOT":-2.18e-06,"MEAN_MOTION_DDOT":0.0},{"OBJECT_NAME":"ONEWEB-0191","OBJECT_ID":"2021-031AF","EPOCH":"2026-04-06T20:01:34.336416","MEAN_MOTION":13.1450371,"ECCENTRICITY":0.0001515,"INCLINATION":87.8938,"RA_OF_ASC_NODE":303.9372,"ARG_OF_PERICENTER":90.9549,"MEAN_ANOMALY":269.1754,"EPHEMERIS_TYPE":0,"CLASSIFICATION_TYPE":"U","NORAD_CAT_ID":48239,"ELEMENT_SET_NO":999,"REV_AT_EPOCH":23879,"BSTAR":-0.00097122,"MEAN_MOTION_DOT":-3.47e-06,"MEAN_MOTION_DDOT":0.0},{"OBJECT_NAME":"ONEWEB-0195","OBJECT_ID":"2021-031AG","EPOCH":"2026-04-06T19:28:26.765760","MEAN_MOTION":13.1450093,"ECCENTRICITY":0.0001849,"INCLINATION":87.895,"RA_OF_ASC_NODE":303.939,"ARG_OF_PERICENTER":74.684,"MEAN_ANOMALY":285.4494,"EPHEMERIS_TYPE":0,"CLASSIFICATION_TYPE":"U","NORAD_CAT_ID":48240,"ELEMENT_SET_NO":999,"REV_AT_EPOCH":23877,"BSTAR":0.00011679000000000001,"MEAN_MOTION_DOT":5.6e-07,"MEAN_MOTION_DDOT":0.0},{"OBJECT_NAME":"ONEWEB-0201","OBJECT_ID":"2021-031AH","EPOCH":"2026-04-06T21:01:08.103072","MEAN_MOTION":13.1450156,"ECCENTRICITY":0.0001297,"INCLINATION":87.8931,"RA_OF_ASC_NODE":303.9522,"ARG_OF_PERICENTER":81.227,"MEAN_ANOMALY":278.9007,"EPHEMERIS_TYPE":0,"CLASSIFICATION_TYPE":"U","NORAD_CAT_ID":48241,"ELEMENT_SET_NO":999,"REV_AT_EPOCH":23901,"BSTAR":0.00031319000000000003,"MEAN_MOTION_DOT":1.29e-06,"MEAN_MOTION_DDOT":0.0},{"OBJECT_NAME":"ONEWEB-0207","OBJECT_ID":"2021-031AJ","EPOCH":"2026-04-06T20:32:23.197920","MEAN_MOTION":13.14501791,"ECCENTRICITY":0.0001414,"INCLINATION":87.8949,"RA_OF_ASC_NODE":303.9318,"ARG_OF_PERICENTER":85.0805,"MEAN_ANOMALY":275.0486,"EPHEMERIS_TYPE":0,"CLASSIFICATION_TYPE":"U","NORAD_CAT_ID":48242,"ELEMENT_SET_NO":999,"REV_AT_EPOCH":23892,"BSTAR":0.00026337,"MEAN_MOTION_DOT":1.1e-06,"MEAN_MOTION_DDOT":0.0},{"OBJECT_NAME":"ONEWEB-0208","OBJECT_ID":"2021-031AK","EPOCH":"2026-04-06T20:06:07.833024","MEAN_MOTION":13.14501129,"ECCENTRICITY":0.0001818,"INCLINATION":87.894,"RA_OF_ASC_NODE":303.9466,"ARG_OF_PERICENTER":77.9232,"MEAN_ANOMALY":282.2101,"EPHEMERIS_TYPE":0,"CLASSIFICATION_TYPE":"U","NORAD_CAT_ID":48243,"ELEMENT_SET_NO":999,"REV_AT_EPOCH":23893,"BSTAR":-0.00083875,"MEAN_MOTION_DOT":-2.98e-06,"MEAN_MOTION_DDOT":0.0},{"OBJECT_NAME":"ONEWEB-0200","OBJECT_ID":"2021-031AL","EPOCH":"2026-04-06T19:13:36.177888","MEAN_MOTION":13.14503113,"ECCENTRICITY":0.000164,"INCLINATION":87.8935,"RA_OF_ASC_NODE":303.942,"ARG_OF_PERICENTER":82.4272,"MEAN_ANOMALY":277.7044,"EPHEMERIS_TYPE":0,"CLASSIFICATION_TYPE":"U","NORAD_CAT_ID":48244,"ELEMENT_SET_NO":999,"REV_AT_EPOCH":23885,"BSTAR":0.00019047,"MEAN_MOTION_DOT":8.3e-07,"MEAN_MOTION_DDOT":0.0},{"OBJECT_NAME":"ONEWEB-0217","OBJECT_ID":"2021-031AM","EPOCH":"2026-04-06T19:36:26.144064","MEAN_MOTION":13.14500681,"ECCENTRICITY":0.0001816,"INCLINATION":87.8939,"RA_OF_ASC_NODE":303.9396,"ARG_OF_PERICENTER":76.0605,"MEAN_ANOMALY":284.0727,"EPHEMERIS_TYPE":0,"CLASSIFICATION_TYPE":"U","NORAD_CAT_ID":48245,"ELEMENT_SET_NO":999,"REV_AT_EPOCH":23880,"BSTAR":-0.00018764,"MEAN_MOTION_DOT":-5.7e-07,"MEAN_MOTION_DDOT":0.0},{"OBJECT_NAME":"ONEWEB-0211","OBJECT_ID":"2021-045A","EPOCH":"2026-04-06T21:13:11.926848","MEAN_MOTION":13.16192339,"ECCENTRICITY":0.0002237,"INCLINATION":87.8934,"RA_OF_ASC_NODE":273.3253,"ARG_OF_PERICENTER":78.891,"MEAN_ANOMALY":281.2473,"EPHEMERIS_TYPE":0,"CLASSIFICATION_TYPE":"U","NORAD_CAT_ID":48767,"ELEMENT_SET_NO":999,"REV_AT_EPOCH":23506,"BSTAR":-0.00012444,"MEAN_MOTION_DOT":-3.4e-07,"MEAN_MOTION_DDOT":0.0},{"OBJECT_NAME":"ONEWEB-0223","OBJECT_ID":"2021-045B","EPOCH":"2026-04-06T22:15:39.966624","MEAN_MOTION":13.15548144,"ECCENTRICITY":0.0002136,"INCLINATION":87.8937,"RA_OF_ASC_NODE":273.4063,"ARG_OF_PERICENTER":89.6358,"MEAN_ANOMALY":270.5017,"EPHEMERIS_TYPE":0,"CLASSIFICATION_TYPE":"U","NORAD_CAT_ID":48768,"ELEMENT_SET_NO":999,"REV_AT_EPOCH":23503,"BSTAR":-0.00021121,"MEAN_MOTION_DOT":-6.7e-07,"MEAN_MOTION_DDOT":0.0},{"OBJECT_NAME":"ONEWEB-0230","OBJECT_ID":"2021-045C","EPOCH":"2026-04-06T21:34:35.671872","MEAN_MOTION":13.15548929,"ECCENTRICITY":0.000168,"INCLINATION":87.8931,"RA_OF_ASC_NODE":273.4324,"ARG_OF_PERICENTER":98.3208,"MEAN_ANOMALY":261.8112,"EPHEMERIS_TYPE":0,"CLASSIFICATION_TYPE":"U","NORAD_CAT_ID":48769,"ELEMENT_SET_NO":999,"REV_AT_EPOCH":23529,"BSTAR":-0.00058373,"MEAN_MOTION_DOT":-2.07e-06,"MEAN_MOTION_DDOT":0.0},{"OBJECT_NAME":"ONEWEB-0237","OBJECT_ID":"2021-045D","EPOCH":"2026-04-06T21:18:37.310976","MEAN_MOTION":13.15549146,"ECCENTRICITY":0.0002001,"INCLINATION":87.893,"RA_OF_ASC_NODE":273.4357,"ARG_OF_PERICENTER":95.7936,"MEAN_ANOMALY":264.3422,"EPHEMERIS_TYPE":0,"CLASSIFICATION_TYPE":"U","NORAD_CAT_ID":48770,"ELEMENT_SET_NO":999,"REV_AT_EPOCH":23501,"BSTAR":-0.00042468000000000003,"MEAN_MOTION_DOT":-1.47e-06,"MEAN_MOTION_DDOT":0.0}]